KUIPER-00272            
1 68588U 26072R   26194.86797380  .00001683  00000+0  24969-3 0  9992
2 68588  51.8993  75.1534 0000925 109.6546 250.4516 14.79935589 15104
KUIPER-00285            
1 68589U 26072S   26194.83335647 -.00026893  00000+0 -35289-2 0  9992
2 68589  51.9044  55.3821 0002891 127.3633 294.2614 14.79735474  5352
KUIPER-00286            
1 68590U 26072T   26194.83335647 -.00066562  00000+0 -80771-2 0  9997
2 68590  51.9012  52.4877 0003047  42.9490 181.5953 14.83441259  5674
KUIPER-00289            
1 68591U 26072U   26194.81660786  .00000450  00000+0  87985-4 0  9999
2 68591  51.8994  60.3972 0000744 125.9305 234.1727 14.79934017 15304
KUIPER-00290            
1 68592U 26072V   26194.83335647 -.00027312  00000+0 -38732-2 0  9999
2 68592  51.9025  58.7800 0000952 115.1127 228.1861 14.76471370  4671
KUIPER-00293            
1 68593U 26072W   26194.87334612  .00001790  00000+0  26377-3 0  9998
2 68593  51.8992  70.1319 0002974 127.0145 233.1090 14.79935577 15179
KUIPER-00294            
1 68594U 26072X   26194.00859804  .00044236  00000+0  59075-2 0  9991
2 68594  51.9005  61.4667 0000765 104.6810 255.4237 14.79111002 15226
KUIPER-00296            
1 68595U 26072Y   26194.78877505  .00026805  00000+0  73084-3 0  9994
2 68595  51.8706  48.1871 0008978 107.3277 252.8692 15.37234880 15472
KUIPER-00297            
1 68596U 26072Z   26194.81425498  .00001055  00000+0  18110-3 0  9998
2 68596  51.9006  70.1210 0001177 130.4696 229.6367 14.76357310 15179
KUIPER-00300            
1 68597U 26072AA  26194.87392000  .00001103  00000+0  18751-3 0  9992
2 68597  51.9036  66.9180 0001878 129.5093 230.6034 14.76473779 15227
KUIPER-00301            
1 68598U 26072AB  26194.85144338  .00019408  00000+0  50722-3 0  9991
2 68598  51.8665  47.8076 0009581 120.5455 239.6479 15.38740983 15482
KUIPER-00304            
1 68599U 26072AC  26194.86520361  .00013474  00000+0  35764-3 0  9993
2 68599  51.8667  47.9124 0012317 125.8426 234.3707 15.38533472 15486
KUIPER-00317            
1 68600U 26072AD  26194.85308979  .00017186  00000+0  22814-2 0  9999
2 68600  51.8997  57.7437 0001770 124.9465 235.1663 14.79861961 15341
KUIPER-00320            
1 68601U 26072AE  26194.84765527 -.00003802  00000+0 -47007-3 0  9999
2 68601  51.9025  62.7612 0000630 112.8835 247.2194 14.79931087 15279
KUIPER-00299            
1 68864U 26095A   26194.19162330  .00000788  00000+0  14266-3 0  9995
2 68864  51.8995 134.1851 0001538 262.0484  98.0302 14.76474002 11488
KUIPER-00353            
1 68865U 26095B   26194.83335647 -.00047207  00000+0 -56063-2 0  9999
2 68865  51.9010 117.8982 0000454 177.3905  27.3080 14.84158954  5499
