{"fetched_at":"2026-07-14T06:34:20.123Z","source":"https://celestrak.org/NORAD/elements/gp.php?GROUP=kuiper&FORMAT=JSON","constellation":"kuiper","records":[{"OBJECT_NAME":"KUIPER-00272","OBJECT_ID":"2026-072R","EPOCH":"2026-07-13T20:49:52.936320","CLASSIFICATION_TYPE":"U","MEAN_MOTION":14.79935589,"ECCENTRICITY":0.0000925,"INCLINATION":51.8993,"RA_OF_ASC_NODE":75.1534,"ARG_OF_PERICENTER":109.6546,"MEAN_ANOMALY":250.4516,"EPHEMERIS_TYPE":0,"NORAD_CAT_ID":68588,"ELEMENT_SET_NO":999,"REV_AT_EPOCH":1510,"BSTAR":0.00024969,"MEAN_MOTION_DOT":0.00001683,"MEAN_MOTION_DDOT":0},{"OBJECT_NAME":"KUIPER-00285","OBJECT_ID":"2026-072S","EPOCH":"2026-07-13T20:00:01.999008","CLASSIFICATION_TYPE":"U","MEAN_MOTION":14.79735474,"ECCENTRICITY":0.0002891,"INCLINATION":51.9044,"RA_OF_ASC_NODE":55.3821,"ARG_OF_PERICENTER":127.3633,"MEAN_ANOMALY":294.2614,"EPHEMERIS_TYPE":0,"NORAD_CAT_ID":68589,"ELEMENT_SET_NO":999,"REV_AT_EPOCH":535,"BSTAR":-0.0035289,"MEAN_MOTION_DOT":-0.00026893,"MEAN_MOTION_DDOT":0},{"OBJECT_NAME":"KUIPER-00286","OBJECT_ID":"2026-072T","EPOCH":"2026-07-13T20:00:01.999008","CLASSIFICATION_TYPE":"U","MEAN_MOTION":14.83441259,"ECCENTRICITY":0.0003047,"INCLINATION":51.9012,"RA_OF_ASC_NODE":52.4877,"ARG_OF_PERICENTER":42.949,"MEAN_ANOMALY":181.5953,"EPHEMERIS_TYPE":0,"NORAD_CAT_ID":68590,"ELEMENT_SET_NO":999,"REV_AT_EPOCH":567,"BSTAR":-0.0080771,"MEAN_MOTION_DOT":-0.00066562,"MEAN_MOTION_DDOT":0},{"OBJECT_NAME":"KUIPER-00289","OBJECT_ID":"2026-072U","EPOCH":"2026-07-13T19:35:54.919104","CLASSIFICATION_TYPE":"U","MEAN_MOTION":14.79934017,"ECCENTRICITY":0.0000744,"INCLINATION":51.8994,"RA_OF_ASC_NODE":60.3972,"ARG_OF_PERICENTER":125.9305,"MEAN_ANOMALY":234.1727,"EPHEMERIS_TYPE":0,"NORAD_CAT_ID":68591,"ELEMENT_SET_NO":999,"REV_AT_EPOCH":1530,"BSTAR":0.000087985,"MEAN_MOTION_DOT":0.0000045,"MEAN_MOTION_DDOT":0},{"OBJECT_NAME":"KUIPER-00290","OBJECT_ID":"2026-072V","EPOCH":"2026-07-13T20:00:01.999008","CLASSIFICATION_TYPE":"U","MEAN_MOTION":14.7647137,"ECCENTRICITY":0.0000952,"INCLINATION":51.9025,"RA_OF_ASC_NODE":58.78,"ARG_OF_PERICENTER":115.1127,"MEAN_ANOMALY":228.1861,"EPHEMERIS_TYPE":0,"NORAD_CAT_ID":68592,"ELEMENT_SET_NO":999,"REV_AT_EPOCH":467,"BSTAR":-0.0038732,"MEAN_MOTION_DOT":-0.00027312,"MEAN_MOTION_DDOT":0},{"OBJECT_NAME":"KUIPER-00293","OBJECT_ID":"2026-072W","EPOCH":"2026-07-13T20:57:37.104768","CLASSIFICATION_TYPE":"U","MEAN_MOTION":14.79935577,"ECCENTRICITY":0.0002974,"INCLINATION":51.8992,"RA_OF_ASC_NODE":70.1319,"ARG_OF_PERICENTER":127.0145,"MEAN_ANOMALY":233.109,"EPHEMERIS_TYPE":0,"NORAD_CAT_ID":68593,"ELEMENT_SET_NO":999,"REV_AT_EPOCH":1517,"BSTAR":0.00026377,"MEAN_MOTION_DOT":0.0000179,"MEAN_MOTION_DDOT":0},{"OBJECT_NAME":"KUIPER-00294","OBJECT_ID":"2026-072X","EPOCH":"2026-07-13T00:12:22.870656","CLASSIFICATION_TYPE":"U","MEAN_MOTION":14.79111002,"ECCENTRICITY":0.0000765,"INCLINATION":51.9005,"RA_OF_ASC_NODE":61.4667,"ARG_OF_PERICENTER":104.681,"MEAN_ANOMALY":255.4237,"EPHEMERIS_TYPE":0,"NORAD_CAT_ID":68594,"ELEMENT_SET_NO":999,"REV_AT_EPOCH":1522,"BSTAR":0.0059074792,"MEAN_MOTION_DOT":0.00044236,"MEAN_MOTION_DDOT":0},{"OBJECT_NAME":"KUIPER-00296","OBJECT_ID":"2026-072Y","EPOCH":"2026-07-13T18:55:50.164320","CLASSIFICATION_TYPE":"U","MEAN_MOTION":15.3723488,"ECCENTRICITY":0.0008978,"INCLINATION":51.8706,"RA_OF_ASC_NODE":48.1871,"ARG_OF_PERICENTER":107.3277,"MEAN_ANOMALY":252.8692,"EPHEMERIS_TYPE":0,"NORAD_CAT_ID":68595,"ELEMENT_SET_NO":999,"REV_AT_EPOCH":1547,"BSTAR":0.00073084,"MEAN_MOTION_DOT":0.00026805,"MEAN_MOTION_DDOT":0},{"OBJECT_NAME":"KUIPER-00297","OBJECT_ID":"2026-072Z","EPOCH":"2026-07-13T19:32:31.630272","CLASSIFICATION_TYPE":"U","MEAN_MOTION":14.7635731,"ECCENTRICITY":0.0001177,"INCLINATION":51.9006,"RA_OF_ASC_NODE":70.121,"ARG_OF_PERICENTER":130.4696,"MEAN_ANOMALY":229.6367,"EPHEMERIS_TYPE":0,"NORAD_CAT_ID":68596,"ELEMENT_SET_NO":999,"REV_AT_EPOCH":1517,"BSTAR":0.0001811,"MEAN_MOTION_DOT":0.00001055,"MEAN_MOTION_DDOT":0},{"OBJECT_NAME":"KUIPER-00300","OBJECT_ID":"2026-072AA","EPOCH":"2026-07-13T20:58:26.688000","CLASSIFICATION_TYPE":"U","MEAN_MOTION":14.76473779,"ECCENTRICITY":0.0001878,"INCLINATION":51.9036,"RA_OF_ASC_NODE":66.918,"ARG_OF_PERICENTER":129.5093,"MEAN_ANOMALY":230.6034,"EPHEMERIS_TYPE":0,"NORAD_CAT_ID":68597,"ELEMENT_SET_NO":999,"REV_AT_EPOCH":1522,"BSTAR":0.00018751,"MEAN_MOTION_DOT":0.00001103,"MEAN_MOTION_DDOT":0},{"OBJECT_NAME":"KUIPER-00301","OBJECT_ID":"2026-072AB","EPOCH":"2026-07-13T20:26:04.708032","CLASSIFICATION_TYPE":"U","MEAN_MOTION":15.38740983,"ECCENTRICITY":0.0009581,"INCLINATION":51.8665,"RA_OF_ASC_NODE":47.8076,"ARG_OF_PERICENTER":120.5455,"MEAN_ANOMALY":239.6479,"EPHEMERIS_TYPE":0,"NORAD_CAT_ID":68598,"ELEMENT_SET_NO":999,"REV_AT_EPOCH":1548,"BSTAR":0.00050722,"MEAN_MOTION_DOT":0.00019408,"MEAN_MOTION_DDOT":0},{"OBJECT_NAME":"KUIPER-00304","OBJECT_ID":"2026-072AC","EPOCH":"2026-07-13T20:45:53.591904","CLASSIFICATION_TYPE":"U","MEAN_MOTION":15.38533472,"ECCENTRICITY":0.0012317,"INCLINATION":51.8667,"RA_OF_ASC_NODE":47.9124,"ARG_OF_PERICENTER":125.8426,"MEAN_ANOMALY":234.3707,"EPHEMERIS_TYPE":0,"NORAD_CAT_ID":68599,"ELEMENT_SET_NO":999,"REV_AT_EPOCH":1548,"BSTAR":0.00035764,"MEAN_MOTION_DOT":0.00013474,"MEAN_MOTION_DDOT":0},{"OBJECT_NAME":"KUIPER-00317","OBJECT_ID":"2026-072AD","EPOCH":"2026-07-13T20:28:26.957856","CLASSIFICATION_TYPE":"U","MEAN_MOTION":14.79861961,"ECCENTRICITY":0.000177,"INCLINATION":51.8997,"RA_OF_ASC_NODE":57.7437,"ARG_OF_PERICENTER":124.9465,"MEAN_ANOMALY":235.1663,"EPHEMERIS_TYPE":0,"NORAD_CAT_ID":68600,"ELEMENT_SET_NO":999,"REV_AT_EPOCH":1534,"BSTAR":0.0022814,"MEAN_MOTION_DOT":0.00017186,"MEAN_MOTION_DDOT":0},{"OBJECT_NAME":"KUIPER-00320","OBJECT_ID":"2026-072AE","EPOCH":"2026-07-13T20:20:37.415328","CLASSIFICATION_TYPE":"U","MEAN_MOTION":14.79931087,"ECCENTRICITY":0.000063,"INCLINATION":51.9025,"RA_OF_ASC_NODE":62.7612,"ARG_OF_PERICENTER":112.8835,"MEAN_ANOMALY":247.2194,"EPHEMERIS_TYPE":0,"NORAD_CAT_ID":68601,"ELEMENT_SET_NO":999,"REV_AT_EPOCH":1527,"BSTAR":-0.00047007,"MEAN_MOTION_DOT":-0.00003802,"MEAN_MOTION_DDOT":0},{"OBJECT_NAME":"KUIPER-00299","OBJECT_ID":"2026-095A","EPOCH":"2026-07-13T04:35:56.253120","CLASSIFICATION_TYPE":"U","MEAN_MOTION":14.76474002,"ECCENTRICITY":0.0001538,"INCLINATION":51.8995,"RA_OF_ASC_NODE":134.1851,"ARG_OF_PERICENTER":262.0484,"MEAN_ANOMALY":98.0302,"EPHEMERIS_TYPE":0,"NORAD_CAT_ID":68864,"ELEMENT_SET_NO":999,"REV_AT_EPOCH":1148,"BSTAR":0.00014266,"MEAN_MOTION_DOT":0.00000788,"MEAN_MOTION_DDOT":0},{"OBJECT_NAME":"KUIPER-00353","OBJECT_ID":"2026-095B","EPOCH":"2026-07-13T20:00:01.999008","CLASSIFICATION_TYPE":"U","MEAN_MOTION":14.84158954,"ECCENTRICITY":0.0000454,"INCLINATION":51.901,"RA_OF_ASC_NODE":117.8982,"ARG_OF_PERICENTER":177.3905,"MEAN_ANOMALY":27.308,"EPHEMERIS_TYPE":0,"NORAD_CAT_ID":68865,"ELEMENT_SET_NO":999,"REV_AT_EPOCH":549,"BSTAR":-0.0056063,"MEAN_MOTION_DOT":-0.00047207,"MEAN_MOTION_DDOT":0}]}
